0 SCOUT B DEB
1 29170U 65063U   13284.43054997 -.00000016  00000-0  10000-3 0   586
2 29170 069.2358 199.1509 0761448 137.4272 312.4101 11.88234431375994
